[
  {
    "COMMENT": "GENERATED VIA SPACETRACK.ORG API",
    "ORIGINATOR": "18 SPCS",
    "NORAD_CAT_ID": "41335",
    "OBJECT_NAME": "SENTINEL 3A",
    "OBJECT_TYPE": "PAYLOAD",
    "CLASSIFICATION_TYPE": "U",
    "INTLDES": "16011A",
    "EPOCH": "2023-07-29 19:05:35",
    "EPOCH_MICROSECONDS": "762784",
    "MEAN_MOTION": "14.26738222",
    "ECCENTRICITY": "0.0001054",
    "INCLINATION": "98.6195",
    "RA_OF_ASC_NODE": "277.2136",
    "ARG_OF_PERICENTER": "95.5337",
    "MEAN_ANOMALY": "264.5963",
    "EPHEMERIS_TYPE": "0",
    "ELEMENT_SET_NO": "999",
    "REV_AT_EPOCH": "38785",
    "BSTAR": "0.000091544",
    "MEAN_MOTION_DOT": "0.00000178",
    "MEAN_MOTION_DDOT": "0",
    "FILE": "3966406",
    "TLE_LINE0": "0 SENTINEL 3A",
    "TLE_LINE1": "1 41335U 16011A   23210.79555281  .00000178  00000-0  91544-4 0  9998",
    "TLE_LINE2": "2 41335  98.6195 277.2136 0001054  95.5337 264.5963 14.26738222387859",
    "OBJECT_ID": "2016-011A",
    "OBJECT_NUMBER": "41335",
    "SEMIMAJOR_AXIS": "7180.791",
    "PERIOD": "100.930",
    "APOGEE": "803.413",
    "PERIGEE": "801.900",
    "DECAYED": "0"
  },
  {
    "COMMENT": "GENERATED VIA SPACETRACK.ORG API",
    "ORIGINATOR": "18 SPCS",
    "NORAD_CAT_ID": "25544",
    "OBJECT_NAME": "ISS (ZARYA)",
    "OBJECT_TYPE": "PAYLOAD",
    "CLASSIFICATION_TYPE": "U",
    "INTLDES": "98067A",
    "EPOCH": "2023-07-29 21:12:57",
    "EPOCH_MICROSECONDS": "483360",
    "MEAN_MOTION": "15.49896772",
    "ECCENTRICITY": "0.00009",
    "INCLINATION": "51.6413",
    "RA_OF_ASC_NODE": "116.9791",
    "ARG_OF_PERICENTER": "137.3489",
    "MEAN_ANOMALY": "341.617",
    "EPHEMERIS_TYPE": "0",
    "ELEMENT_SET_NO": "999",
    "REV_AT_EPOCH": "40841",
    "BSTAR": "0.00036107",
    "MEAN_MOTION_DOT": "0.00020128",
    "MEAN_MOTION_DDOT": "0",
    "FILE": "3966392",
    "TLE_LINE0": "0 ISS (ZARYA)",
    "TLE_LINE1": "1 25544U 98067A   23210.88399865  .00020128  00000-0  36107-3 0  9997",
    "TLE_LINE2": "2 25544  51.6413 116.9791 0000900 137.3489 341.6170 15.49896772408417",
    "OBJECT_ID": "1998-067A",
    "OBJECT_NUMBER": "25544",
    "SEMIMAJOR_AXIS": "6795.165",
    "PERIOD": "92.909",
    "APOGEE": "417.641",
    "PERIGEE": "416.418",
    "DECAYED": "0"
  },
  {
    "COMMENT": "GENERATED VIA SPACETRACK.ORG API",
    "ORIGINATOR": "18 SPCS",
    "NORAD_CAT_ID": "41335",
    "OBJECT_NAME": "SENTINEL 3A",
    "OBJECT_TYPE": "PAYLOAD",
    "CLASSIFICATION_TYPE": "U",
    "INTLDES": "16011A",
    "EPOCH": "2023-07-30 01:49:32",
    "EPOCH_MICROSECONDS": "621664",
    "MEAN_MOTION": "14.26738396",
    "ECCENTRICITY": "0.0001052",
    "INCLINATION": "98.6194",
    "RA_OF_ASC_NODE": "277.4899",
    "ARG_OF_PERICENTER": "95.7077",
    "MEAN_ANOMALY": "264.4224",
    "EPHEMERIS_TYPE": "0",
    "ELEMENT_SET_NO": "999",
    "REV_AT_EPOCH": "38789",
    "BSTAR": "0.000094548",
    "MEAN_MOTION_DOT": "0.00000185",
    "MEAN_MOTION_DDOT": "0",
    "FILE": "3966770",
    "TLE_LINE0": "0 SENTINEL 3A",
    "TLE_LINE1": "1 41335U 16011A   23211.07607201  .00000185  00000-0  94548-4 0  9995",
    "TLE_LINE2": "2 41335  98.6194 277.4899 0001052  95.7077 264.4224 14.26738396387892",
    "OBJECT_ID": "2016-011A",
    "OBJECT_NUMBER": "41335",
    "SEMIMAJOR_AXIS": "7180.791",
    "PERIOD": "100.930",
    "APOGEE": "803.411",
    "PERIGEE": "801.900",
    "DECAYED": "0"
  },
  {
    "COMMENT": "GENERATED VIA SPACETRACK.ORG API",
    "ORIGINATOR": "18 SPCS",
    "NORAD_CAT_ID": "25544",
    "OBJECT_NAME": "ISS (ZARYA)",
    "OBJECT_TYPE": "PAYLOAD",
    "CLASSIFICATION_TYPE": "U",
    "INTLDES": "98067A",
    "EPOCH": "2023-07-30 03:31:03",
    "EPOCH_MICROSECONDS": "812160",
    "MEAN_MOTION": "15.49902504",
    "ECCENTRICITY": "0.0000947",
    "INCLINATION": "51.6406",
    "RA_OF_ASC_NODE": "115.6786",
    "ARG_OF_PERICENTER": "139.937",
    "MEAN_ANOMALY": "5.0558",
    "EPHEMERIS_TYPE": "0",
    "ELEMENT_SET_NO": "999",
    "REV_AT_EPOCH": "40845",
    "BSTAR": "0.00031268",
    "MEAN_MOTION_DOT": "0.00017367",
    "MEAN_MOTION_DDOT": "0",
    "FILE": "3966688",
    "TLE_LINE0": "0 ISS (ZARYA)",
    "TLE_LINE1": "1 25544U 98067A   23211.14657190  .00017367  00000-0  31268-3 0  9999",
    "TLE_LINE2": "2 25544  51.6406 115.6786 0000947 139.9370   5.0558 15.49902504408453",
    "OBJECT_ID": "1998-067A",
    "OBJECT_NUMBER": "25544",
    "SEMIMAJOR_AXIS": "6795.148",
    "PERIOD": "92.909",
    "APOGEE": "417.657",
    "PERIGEE": "416.370",
    "DECAYED": "0"
  },
  {
    "COMMENT": "GENERATED VIA SPACETRACK.ORG API",
    "ORIGINATOR": "18 SPCS",
    "NORAD_CAT_ID": "25544",
    "OBJECT_NAME": "ISS (ZARYA)",
    "OBJECT_TYPE": "PAYLOAD",
    "CLASSIFICATION_TYPE": "U",
    "INTLDES": "98067A",
    "EPOCH": "2023-07-30 04:26:32",
    "EPOCH_MICROSECONDS": "568288",
    "MEAN_MOTION": "15.49903848",
    "ECCENTRICITY": "0.0001108",
    "INCLINATION": "51.64",
    "RA_OF_ASC_NODE": "115.4914",
    "ARG_OF_PERICENTER": "149.4802",
    "MEAN_ANOMALY": "210.6251",
    "EPHEMERIS_TYPE": "0",
    "ELEMENT_SET_NO": "999",
    "REV_AT_EPOCH": "40846",
    "BSTAR": "0.00030317",
    "MEAN_MOTION_DOT": "0.00016825",
    "MEAN_MOTION_DDOT": "0",
    "FILE": "3966890",
    "TLE_LINE0": "0 ISS (ZARYA)",
    "TLE_LINE1": "1 25544U 98067A   23211.18509917  .00016825  00000-0  30317-3 0  9998",
    "TLE_LINE2": "2 25544  51.6400 115.4914 0001108 149.4802 210.6251 15.49903848408461",
    "OBJECT_ID": "1998-067A",
    "OBJECT_NUMBER": "25544",
    "SEMIMAJOR_AXIS": "6795.144",
    "PERIOD": "92.909",
    "APOGEE": "417.762",
    "PERIGEE": "416.256",
    "DECAYED": "0"
  },
  {
    "COMMENT": "GENERATED VIA SPACETRACK.ORG API",
    "ORIGINATOR": "18 SPCS",
    "NORAD_CAT_ID": "25544",
    "OBJECT_NAME": "ISS (ZARYA)",
    "OBJECT_TYPE": "PAYLOAD",
    "CLASSIFICATION_TYPE": "U",
    "INTLDES": "98067A",
    "EPOCH": "2023-07-30 06:37:12",
    "EPOCH_MICROSECONDS": "144000",
    "MEAN_MOTION": "15.49908252",
    "ECCENTRICITY": "0.0000998",
    "INCLINATION": "51.6406",
    "RA_OF_ASC_NODE": "115.0382",
    "ARG_OF_PERICENTER": "138.5817",
    "MEAN_ANOMALY": "8.1342",
    "EPHEMERIS_TYPE": "0",
    "ELEMENT_SET_NO": "999",
    "REV_AT_EPOCH": "40847",
    "BSTAR": "0.00031899",
    "MEAN_MOTION_DOT": "0.00017731",
    "MEAN_MOTION_DDOT": "0",
    "FILE": "3966940",
    "TLE_LINE0": "0 ISS (ZARYA)",
    "TLE_LINE1": "1 25544U 98067A   23211.27583500  .00017731  00000-0  31899-3 0  9991",
    "TLE_LINE2": "2 25544  51.6406 115.0382 0000998 138.5817   8.1342 15.49908252408479",
    "OBJECT_ID": "1998-067A",
    "OBJECT_NUMBER": "25544",
    "SEMIMAJOR_AXIS": "6795.131",
    "PERIOD": "92.909",
    "APOGEE": "417.674",
    "PERIGEE": "416.318",
    "DECAYED": "0"
  },
  {
    "COMMENT": "GENERATED VIA SPACETRACK.ORG API",
    "ORIGINATOR": "18 SPCS",
    "NORAD_CAT_ID": "41335",
    "OBJECT_NAME": "SENTINEL 3A",
    "OBJECT_TYPE": "PAYLOAD",
    "CLASSIFICATION_TYPE": "U",
    "INTLDES": "16011A",
    "EPOCH": "2023-07-30 10:14:28",
    "EPOCH_MICROSECONDS": "703040",
    "MEAN_MOTION": "14.26738419",
    "ECCENTRICITY": "0.0001044",
    "INCLINATION": "98.6194",
    "RA_OF_ASC_NODE": "277.8353",
    "ARG_OF_PERICENTER": "95.8225",
    "MEAN_ANOMALY": "264.3074",
    "EPHEMERIS_TYPE": "0",
    "ELEMENT_SET_NO": "999",
    "REV_AT_EPOCH": "38794",
    "BSTAR": "0.000079188",
    "MEAN_MOTION_DOT": "0.00000148",
    "MEAN_MOTION_DDOT": "0",
    "FILE": "3967006",
    "TLE_LINE0": "0 SENTINEL 3A",
    "TLE_LINE1": "1 41335U 16011A   23211.42672110  .00000148  00000-0  79188-4 0  9997",
    "TLE_LINE2": "2 41335  98.6194 277.8353 0001044  95.8225 264.3074 14.26738419387942",
    "OBJECT_ID": "2016-011A",
    "OBJECT_NUMBER": "41335",
    "SEMIMAJOR_AXIS": "7180.791",
    "PERIOD": "100.930",
    "APOGEE": "803.405",
    "PERIGEE": "801.906",
    "DECAYED": "0"
  },
  {
    "COMMENT": "GENERATED VIA SPACETRACK.ORG API",
    "ORIGINATOR": "18 SPCS",
    "NORAD_CAT_ID": "25544",
    "OBJECT_NAME": "ISS (ZARYA)",
    "OBJECT_TYPE": "PAYLOAD",
    "CLASSIFICATION_TYPE": "U",
    "INTLDES": "98067A",
    "EPOCH": "2023-07-30 10:31:13",
    "EPOCH_MICROSECONDS": "999872",
    "MEAN_MOTION": "15.49917723",
    "ECCENTRICITY": "0.000107",
    "INCLINATION": "51.6411",
    "RA_OF_ASC_NODE": "114.2329",
    "ARG_OF_PERICENTER": "139.8543",
    "MEAN_ANOMALY": "194.2836",
    "EPHEMERIS_TYPE": "0",
    "ELEMENT_SET_NO": "999",
    "REV_AT_EPOCH": "40849",
    "BSTAR": "0.00035217",
    "MEAN_MOTION_DOT": "0.00019635",
    "MEAN_MOTION_DDOT": "0",
    "FILE": "3966943",
    "TLE_LINE0": "0 ISS (ZARYA)",
    "TLE_LINE1": "1 25544U 98067A   23211.43835648  .00019635  00000-0  35217-3 0  9995",
    "TLE_LINE2": "2 25544  51.6411 114.2329 0001070 139.8543 194.2836 15.49917723408499",
    "OBJECT_ID": "1998-067A",
    "OBJECT_NUMBER": "25544",
    "SEMIMAJOR_AXIS": "6795.104",
    "PERIOD": "92.908",
    "APOGEE": "417.696",
    "PERIGEE": "416.241",
    "DECAYED": "0"
  }
]